{"type": "FeatureCollection", "features": [ {"type": "Feature", "properties": {"norad_id": 33905, "name": "COSMOS 2251 DEB", "group": "cosmos-2251-debris", "lat": -18.658104173459762, "lon": 140.17257583121958, "alt_km": 736.4514534474247, "timestamp": "2025-12-13T20:38:51.400649+00:00", "meta": {"OBJECT_NAME": "COSMOS 2251 DEB", "OBJECT_ID": "1993-036DJ", "EPOCH": "2025-12-12T22:04:30.248256", "MEAN_MOTION": 14.35388029, "ECCENTRICITY": 0.00588835, "INCLINATION": 73.8874, "RA_OF_ASC_NODE": 316.3112, "ARG_OF_PERICENTER": 205.7938, "MEAN_ANOMALY": 175.4675, "EPHEMERIS_TYPE": 0, "CLASSIFICATION_TYPE": "U", "NORAD_CAT_ID": 33905, "ELEMENT_SET_NO": 999, "REV_AT_EPOCH": 87690, "BSTAR": 0.0010382988, "MEAN_MOTION_DOT": 3.013e-05, "MEAN_MOTION_DDOT": 0}, "tle": {"line1": "1 33905U 93036DJ  25346.91979454  .00003013  00000+0  10383-2 0  9992", "line2": "2 33905  73.8874 316.3112 0058883 205.7938 175.4675 14.35388029876900"}}, "geometry": {"type": "Point", "coordinates": [140.17257583121958, -18.658104173459762]}}, {"type": "Feature", "properties": {"norad_id": 33906, "name": "COSMOS 2251 DEB", "group": "cosmos-2251-debris", "lat": 7.8746176204070695, "lon": 137.0760742625511, "alt_km": 729.9061866231177, "timestamp": "2025-12-13T20:38:51.400660+00:00", "meta": {"OBJECT_NAME": "COSMOS 2251 DEB", "OBJECT_ID": "1993-036DK", "EPOCH": "2025-12-12T09:49:49.961856", "MEAN_MOTION": 14.57084166, "ECCENTRICITY": 0.00366174, "INCLINATION": 74.0307, "RA_OF_ASC_NODE": 322.1011, "ARG_OF_PERICENTER": 351.5359, "MEAN_ANOMALY": 133.4843, "EPHEMERIS_TYPE": 0, "CLASSIFICATION_TYPE": "U", "NORAD_CAT_ID": 33906, "ELEMENT_SET_NO": 999, "REV_AT_EPOCH": 88003, "BSTAR": 0.0031055065, "MEAN_MOTION_DOT": 0.00014117, "MEAN_MOTION_DDOT": 0}, "tle": {"line1": "1 33906U 93036DK  25346.40960604  .00014117  00000+0  31055-2 0  9990", "line2": "2 33906  74.0307 322.1011 0036617 351.5359 133.4843 14.57084166880035"}}, "geometry": {"type": "Point", "coordinates": [137.0760742625511, 7.8746176204070695]}}, {"type": "Feature", "properties": {"norad_id": 33907, "name": "COSMOS 2251 DEB", "group": "cosmos-2251-debris", "lat": 34.49847255213085, "lon": 42.93546618309337, "alt_km": 735.8488848467177, "timestamp": "2025-12-13T20:38:51.400670+00:00", "meta": {"OBJECT_NAME": "COSMOS 2251 DEB", "OBJECT_ID": "1993-036DL", "EPOCH": "2025-12-13T03:58:29.686368", "MEAN_MOTION": 14.30513073, "ECCENTRICITY": 0.01120998, "INCLINATION": 74.0708, "RA_OF_ASC_NODE": 32.8776, "ARG_OF_PERICENTER": 88.2286, "MEAN_ANOMALY": 332.782, "EPHEMERIS_TYPE": 0, "CLASSIFICATION_TYPE": "U", "NORAD_CAT_ID": 33907, "ELEMENT_SET_NO": 999, "REV_AT_EPOCH": 86586, "BSTAR": 0.0023514912, "MEAN_MOTION_DOT": 6.543e-05, "MEAN_MOTION_DDOT": 0}, "tle": {"line1": "1 33907U 93036DL  25347.16562137  .00006543  00000+0  23515-2 0  9990", "line2": "2 33907  74.0708  32.8776 0112099  88.2286 332.7820 14.30513073865864"}}, "geometry": {"type": "Point", "coordinates": [42.93546618309337, 34.49847255213085]}}, {"type": "Feature", "properties": {"norad_id": 33908, "name": "COSMOS 2251 DEB", "group": "cosmos-2251-debris", "lat": -23.03540204907293, "lon": -163.3050235964152, "alt_km": 922.7241776341625, "timestamp": "2025-12-13T20:38:51.400680+00:00", "meta": {"OBJECT_NAME": "COSMOS 2251 DEB", "OBJECT_ID": "1993-036DM", "EPOCH": "2025-12-12T22:35:09.458016", "MEAN_MOTION": 14.07343043, "ECCENTRICITY": 0.02231149, "INCLINATION": 73.8377, "RA_OF_ASC_NODE": 205.4085, "ARG_OF_PERICENTER": 228.9135, "MEAN_ANOMALY": 129.2545, "EPHEMERIS_TYPE": 0, "CLASSIFICATION_TYPE": "U", "NORAD_CAT_ID": 33908, "ELEMENT_SET_NO": 999, "REV_AT_EPOCH": 85476, "BSTAR": 0.0027138869, "MEAN_MOTION_DOT": 5.698e-05, "MEAN_MOTION_DDOT": 0}, "tle": {"line1": "1 33908U 93036DM  25346.94108169  .00005698  00000+0  27139-2 0  9993", "line2": "2 33908  73.8377 205.4085 0223114 228.9135 129.2545 14.07343043854764"}}, "geometry": {"type": "Point", "coordinates": [-163.3050235964152, -23.03540204907293]}}, {"type": "Feature", "properties": {"norad_id": 33911, "name": "COSMOS 2251 DEB", "group": "cosmos-2251-debris", "lat": 14.000441353379154, "lon": 163.75156799144696, "alt_km": 645.2454322033245, "timestamp": "2025-12-13T20:38:51.400691+00:00", "meta": {"OBJECT_NAME": "COSMOS 2251 DEB", "OBJECT_ID": "1993-036DQ", "EPOCH": "2025-12-11T11:44:22.098624", "MEAN_MOTION": 14.74796622, "ECCENTRICITY": 0.00142629, "INCLINATION": 74.0904, "RA_OF_ASC_NODE": 164.2887, "ARG_OF_PERICENTER": 105.3404, "MEAN_ANOMALY": 285.0385, "EPHEMERIS_TYPE": 0, "CLASSIFICATION_TYPE": "U", "NORAD_CAT_ID": 33911, "ELEMENT_SET_NO": 999, "REV_AT_EPOCH": 88626, "BSTAR": 0.0039923309, "MEAN_MOTION_DOT": 0.00026852, "MEAN_MOTION_DDOT": 0}, "tle": {"line1": "1 33911U 93036DQ  25345.48914466  .00026852  00000+0  39923-2 0  9999", "line2": "2 33911  74.0904 164.2887 0014262 105.3404 285.0385 14.74796622886260"}}, "geometry": {"type": "Point", "coordinates": [163.75156799144696, 14.000441353379154]}}, {"type": "Feature", "properties": {"norad_id": 33912, "name": "COSMOS 2251 DEB", "group": "cosmos-2251-debris", "lat": 10.626723918921284, "lon": 4.535217482392279, "alt_km": 721.6406793163442, "timestamp": "2025-12-13T20:38:51.400701+00:00", "meta": {"OBJECT_NAME": "COSMOS 2251 DEB", "OBJECT_ID": "1993-036DR", "EPOCH": "2025-12-13T07:27:20.876256", "MEAN_MOTION": 14.51901288, "ECCENTRICITY": 0.0011445, "INCLINATION": 74.0337, "RA_OF_ASC_NODE": 188.6495, "ARG_OF_PERICENTER": 267.6102, "MEAN_ANOMALY": 269.5349, "EPHEMERIS_TYPE": 0, "CLASSIFICATION_TYPE": "U", "NORAD_CAT_ID": 33912, "ELEMENT_SET_NO": 999, "REV_AT_EPOCH": 88441, "BSTAR": 0.0011614535, "MEAN_MOTION_DOT": 4.661e-05, "MEAN_MOTION_DDOT": 0}, "tle": {"line1": "1 33912U 93036DR  25347.31065829  .00004661  00000+0  11615-2 0  9996", "line2": "2 33912  74.0337 188.6495 0011445 267.6102 269.5349 14.51901288884416"}}, "geometry": {"type": "Point", "coordinates": [4.535217482392279, 10.626723918921284]}}, {"type": "Feature", "properties": {"norad_id": 33913, "name": "COSMOS 2251 DEB", "group": "cosmos-2251-debris", "lat": -56.87081662129973, "lon": 27.566904173258582, "alt_km": 712.3189924825665, "timestamp": "2025-12-13T20:38:51.400718+00:00", "meta": {"OBJECT_NAME": "COSMOS 2251 DEB", "OBJECT_ID": "1993-036DS", "EPOCH": "2025-12-13T07:05:41.707968", "MEAN_MOTION": 14.48490628, "ECCENTRICITY": 0.00481685, "INCLINATION": 74.0334, "RA_OF_ASC_NODE": 182.6037, "ARG_OF_PERICENTER": 285.0801, "MEAN_ANOMALY": 252.3728, "EPHEMERIS_TYPE": 0, "CLASSIFICATION_TYPE": "U", "NORAD_CAT_ID": 33913, "ELEMENT_SET_NO": 999, "REV_AT_EPOCH": 88465, "BSTAR": 0.00085852751, "MEAN_MOTION_DOT": 3.242e-05, "MEAN_MOTION_DDOT": 0}, "tle": {"line1": "1 33913U 93036DS  25347.29562162  .00003242  00000+0  85853-3 0  9996", "line2": "2 33913  74.0334 182.6037 0048168 285.0801 252.3728 14.48490628884656"}}, "geometry": {"type": "Point", "coordinates": [27.566904173258582, -56.87081662129973]}}, {"type": "Feature", "properties": {"norad_id": 33914, "name": "COSMOS 2251 DEB", "group": "cosmos-2251-debris", "lat": -71.75356281841844, "lon": -106.86213334094342, "alt_km": 1178.813745834088, "timestamp": "2025-12-13T20:38:51.400736+00:00", "meta": {"OBJECT_NAME": "COSMOS 2251 DEB", "OBJECT_ID": "1993-036DT", "EPOCH": "2025-12-13T05:48:43.405056", "MEAN_MOTION": 13.7198586, "ECCENTRICITY": 0.03011442, "INCLINATION": 74.0914, "RA_OF_ASC_NODE": 14.2669, "ARG_OF_PERICENTER": 117.1841, "MEAN_ANOMALY": 329.775, "EPHEMERIS_TYPE": 0, "CLASSIFICATION_TYPE": "U", "NORAD_CAT_ID": 33914, "ELEMENT_SET_NO": 999, "REV_AT_EPOCH": 84088, "BSTAR": 0.000516172, "MEAN_MOTION_DOT": 6.28e-06, "MEAN_MOTION_DDOT": 0}, "tle": {"line1": "1 33914U 93036DT  25347.24216904  .00000628  00000+0  51617-3 0  9998", "line2": "2 33914  74.0914  14.2669 0301144 117.1841 329.7750 13.71985860840880"}}, "geometry": {"type": "Point", "coordinates": [-106.86213334094342, -71.75356281841844]}}, {"type": "Feature", "properties": {"norad_id": 33915, "name": "COSMOS 2251 DEB", "group": "cosmos-2251-debris", "lat": -73.19765410400313, "lon": -39.298474102892264, "alt_km": 846.8596969180699, "timestamp": "2025-12-13T20:38:51.400746+00:00", "meta": {"OBJECT_NAME": "COSMOS 2251 DEB", "OBJECT_ID": "1993-036DU", "EPOCH": "2025-12-13T04:34:50.918304", "MEAN_MOTION": 14.3508486, "ECCENTRICITY": 0.01043956, "INCLINATION": 74.0434, "RA_OF_ASC_NODE": 33.2804, "ARG_OF_PERICENTER": 125.7221, "MEAN_ANOMALY": 291.8134, "EPHEMERIS_TYPE": 0, "CLASSIFICATION_TYPE": "U", "NORAD_CAT_ID": 33915, "ELEMENT_SET_NO": 999, "REV_AT_EPOCH": 87764, "BSTAR": 0.00055712834, "MEAN_MOTION_DOT": 1.665e-05, "MEAN_MOTION_DDOT": 0}, "tle": {"line1": "1 33915U 93036DU  25347.19086711  .00001665  00000+0  55713-3 0  9997", "line2": "2 33915  74.0434  33.2804 0104395 125.7221 291.8134 14.35084860877646"}}, "geometry": {"type": "Point", "coordinates": [-39.298474102892264, -73.19765410400313]}}, {"type": "Feature", "properties": {"norad_id": 33916, "name": "COSMOS 2251 DEB", "group": "cosmos-2251-debris", "lat": 30.636653853403093, "lon": -151.00143077690743, "alt_km": 886.3898972863808, "timestamp": "2025-12-13T20:38:51.400756+00:00", "meta": {"OBJECT_NAME": "COSMOS 2251 DEB", "OBJECT_ID": "1993-036DV", "EPOCH": "2025-12-13T06:14:00.519936", "MEAN_MOTION": 13.68615371, "ECCENTRICITY": 0.03253102, "INCLINATION": 74.0528, "RA_OF_ASC_NODE": 39.7344, "ARG_OF_PERICENTER": 211.7629, "MEAN_ANOMALY": 221.4251, "EPHEMERIS_TYPE": 0, "CLASSIFICATION_TYPE": "U", "NORAD_CAT_ID": 33916, "ELEMENT_SET_NO": 999, "REV_AT_EPOCH": 83898, "BSTAR": 0.00068360903, "MEAN_MOTION_DOT": 8.26e-06, "MEAN_MOTION_DDOT": 0}, "tle": {"line1": "1 33916U 93036DV  25347.25972824  .00000826  00000+0  68361-3 0  9995", "line2": "2 33916  74.0528  39.7344 0325310 211.7629 221.4251 13.68615371838986"}}, "geometry": {"type": "Point", "coordinates": [-151.00143077690743, 30.636653853403093]}}]}